{"type": "FeatureCollection", "features": [ {"type": "Feature", "properties": {"norad_id": 31568, "name": "FENGYUN 1C DEB", "group": "fengyun-1c-debris", "lat": -63.019860444835345, "lon": 10.226604628069985, "alt_km": 900.852375119427, "timestamp": "2025-12-02T06:27:53.296601+00:00", "meta": {"OBJECT_NAME": "FENGYUN 1C DEB", "OBJECT_ID": "1999-025BZK", "EPOCH": "2025-11-27T22:38:02.918112", "MEAN_MOTION": 14.03182798, "ECCENTRICITY": 0.0121792, "INCLINATION": 102.0468, "RA_OF_ASC_NODE": 209.318, "ARG_OF_PERICENTER": 158.3893, "MEAN_ANOMALY": 202.2464, "EPHEMERIS_TYPE": 0, "CLASSIFICATION_TYPE": "U", "NORAD_CAT_ID": 31568, "ELEMENT_SET_NO": 999, "REV_AT_EPOCH": 94372, "BSTAR": 0.0028015, "MEAN_MOTION_DOT": 4.595e-05, "MEAN_MOTION_DDOT": 0}, "tle": {"line1": "1 31568U 99025BZK 25331.94308933  .00004595  00000+0  28015-2 0  9991", "line2": "2 31568 102.0468 209.3180 0121792 158.3893 202.2464 14.03182798943726"}}, "geometry": {"type": "Point", "coordinates": [10.226604628069985, -63.019860444835345]}}, {"type": "Feature", "properties": {"norad_id": 31569, "name": "FENGYUN 1C DEB", "group": "fengyun-1c-debris", "lat": -1.2306000137868254, "lon": 129.948580529614, "alt_km": 805.7295823290087, "timestamp": "2025-12-02T06:27:53.296610+00:00", "meta": {"OBJECT_NAME": "FENGYUN 1C DEB", "OBJECT_ID": "1999-025BZL", "EPOCH": "2025-11-30T05:24:01.468800", "MEAN_MOTION": 13.95405103, "ECCENTRICITY": 0.01728622, "INCLINATION": 102.6164, "RA_OF_ASC_NODE": 126.885, "ARG_OF_PERICENTER": 36.2337, "MEAN_ANOMALY": 138.7821, "EPHEMERIS_TYPE": 0, "CLASSIFICATION_TYPE": "U", "NORAD_CAT_ID": 31569, "ELEMENT_SET_NO": 999, "REV_AT_EPOCH": 93504, "BSTAR": 0.0023090613, "MEAN_MOTION_DOT": 3.477e-05, "MEAN_MOTION_DDOT": 0}, "tle": {"line1": "1 31569U 99025BZL 25334.22501700  .00003477  00000+0  23091-2 0  9990", "line2": "2 31569 102.6164 126.8850 0172862  36.2337 138.7821 13.95405103935048"}}, "geometry": {"type": "Point", "coordinates": [129.948580529614, -1.2306000137868254]}}, {"type": "Feature", "properties": {"norad_id": 31570, "name": "FENGYUN 1C DEB", "group": "fengyun-1c-debris", "lat": -23.704907673772414, "lon": -174.8930182845243, "alt_km": 735.2288149668775, "timestamp": "2025-12-02T06:27:53.296620+00:00", "meta": {"OBJECT_NAME": "FENGYUN 1C DEB", "OBJECT_ID": "1999-025BZM", "EPOCH": "2025-11-25T06:40:18.493248", "MEAN_MOTION": 14.24909801, "ECCENTRICITY": 0.01526257, "INCLINATION": 102.5663, "RA_OF_ASC_NODE": 0.7562, "ARG_OF_PERICENTER": 266.5584, "MEAN_ANOMALY": 91.8112, "EPHEMERIS_TYPE": 0, "CLASSIFICATION_TYPE": "U", "NORAD_CAT_ID": 31570, "ELEMENT_SET_NO": 999, "REV_AT_EPOCH": 63118, "BSTAR": 0.0023713757, "MEAN_MOTION_DOT": 6.183e-05, "MEAN_MOTION_DDOT": 0}, "tle": {"line1": "1 31570U 99025BZM 25329.27799182  .00006183  00000+0  23714-2 0  9993", "line2": "2 31570 102.5663   0.7562 0152625 266.5584  91.8112 14.24909801631187"}}, "geometry": {"type": "Point", "coordinates": [-174.8930182845243, -23.704907673772414]}}, {"type": "Feature", "properties": {"norad_id": 31608, "name": "FENGYUN 1C DEB", "group": "fengyun-1c-debris", "lat": -4.783548898041587, "lon": -86.85096992072914, "alt_km": 654.6997137153176, "timestamp": "2025-12-02T06:27:53.296630+00:00", "meta": {"OBJECT_NAME": "FENGYUN 1C DEB", "OBJECT_ID": "1999-025BZN", "EPOCH": "2025-12-01T13:29:07.607040", "MEAN_MOTION": 14.85609369, "ECCENTRICITY": 0.01468978, "INCLINATION": 98.3795, "RA_OF_ASC_NODE": 93.1111, "ARG_OF_PERICENTER": 73.6364, "MEAN_ANOMALY": 288.0943, "EPHEMERIS_TYPE": 0, "CLASSIFICATION_TYPE": "U", "NORAD_CAT_ID": 31608, "ELEMENT_SET_NO": 999, "REV_AT_EPOCH": 98467, "BSTAR": 0.00073966432, "MEAN_MOTION_DOT": 7.721e-05, "MEAN_MOTION_DDOT": 0}, "tle": {"line1": "1 31608U 99025BZN 25335.56189360  .00007721  00000+0  73966-3 0  9999", "line2": "2 31608  98.3795  93.1111 0146897  73.6364 288.0943 14.85609369984670"}}, "geometry": {"type": "Point", "coordinates": [-86.85096992072914, -4.783548898041587]}}, {"type": "Feature", "properties": {"norad_id": 31609, "name": "FENGYUN 1C DEB", "group": "fengyun-1c-debris", "lat": 46.35720574684766, "lon": -165.7573531111066, "alt_km": 890.3727050673579, "timestamp": "2025-12-02T06:27:53.296640+00:00", "meta": {"OBJECT_NAME": "FENGYUN 1C DEB", "OBJECT_ID": "1999-025BZP", "EPOCH": "2025-12-01T01:08:23.072928", "MEAN_MOTION": 14.15579231, "ECCENTRICITY": 0.00950759, "INCLINATION": 99.2169, "RA_OF_ASC_NODE": 3.1774, "ARG_OF_PERICENTER": 353.7436, "MEAN_ANOMALY": 34.9874, "EPHEMERIS_TYPE": 0, "CLASSIFICATION_TYPE": "U", "NORAD_CAT_ID": 31609, "ELEMENT_SET_NO": 999, "REV_AT_EPOCH": 65919, "BSTAR": 0.0024784114, "MEAN_MOTION_DOT": 5.022e-05, "MEAN_MOTION_DDOT": 0}, "tle": {"line1": "1 31609U 99025BZP 25335.04748927  .00005022  00000+0  24784-2 0  9998", "line2": "2 31609  99.2169   3.1774 0095075 353.7436  34.9874 14.15579231659199"}}, "geometry": {"type": "Point", "coordinates": [-165.7573531111066, 46.35720574684766]}}, {"type": "Feature", "properties": {"norad_id": 31612, "name": "FENGYUN 1C DEB", "group": "fengyun-1c-debris", "lat": -45.13508100148063, "lon": -102.47364337484024, "alt_km": 402.0763359587945, "timestamp": "2025-12-02T06:27:53.296652+00:00", "meta": {"OBJECT_NAME": "FENGYUN 1C DEB", "OBJECT_ID": "1999-025BZS", "EPOCH": "2025-11-26T23:13:26.859936", "MEAN_MOTION": 15.63030412, "ECCENTRICITY": 0.0034124, "INCLINATION": 100.3408, "RA_OF_ASC_NODE": 239.2079, "ARG_OF_PERICENTER": 150.8693, "MEAN_ANOMALY": 209.4468, "EPHEMERIS_TYPE": 0, "CLASSIFICATION_TYPE": "U", "NORAD_CAT_ID": 31612, "ELEMENT_SET_NO": 999, "REV_AT_EPOCH": 99915, "BSTAR": 0.0020210875, "MEAN_MOTION_DOT": 0.00192851, "MEAN_MOTION_DDOT": 0}, "tle": {"line1": "1 31612U 99025BZS 25330.96767199  .00192851  00000+0  20211-2 0  9998", "line2": "2 31612 100.3408 239.2079 0034124 150.8693 209.4468 15.63030412999150"}}, "geometry": {"type": "Point", "coordinates": [-102.47364337484024, -45.13508100148063]}}, {"type": "Feature", "properties": {"norad_id": 31613, "name": "FENGYUN 1C DEB", "group": "fengyun-1c-debris", "lat": -65.51460238501687, "lon": -176.31495387208176, "alt_km": 1266.9311795917001, "timestamp": "2025-12-02T06:27:53.296664+00:00", "meta": {"OBJECT_NAME": "FENGYUN 1C DEB", "OBJECT_ID": "1999-025BZT", "EPOCH": "2025-11-29T06:35:57.975648", "MEAN_MOTION": 13.63380366, "ECCENTRICITY": 0.03428374, "INCLINATION": 98.4249, "RA_OF_ASC_NODE": 162.0952, "ARG_OF_PERICENTER": 141.7134, "MEAN_ANOMALY": 220.8897, "EPHEMERIS_TYPE": 0, "CLASSIFICATION_TYPE": "U", "NORAD_CAT_ID": 31613, "ELEMENT_SET_NO": 999, "REV_AT_EPOCH": 91578, "BSTAR": 0.0013232532, "MEAN_MOTION_DOT": 1.518e-05, "MEAN_MOTION_DDOT": 0}, "tle": {"line1": "1 31613U 99025BZT 25333.27497657  .00001518  00000+0  13233-2 0  9990", "line2": "2 31613  98.4249 162.0952 0342837 141.7134 220.8897 13.63380366915780"}}, "geometry": {"type": "Point", "coordinates": [-176.31495387208176, -65.51460238501687]}}, {"type": "Feature", "properties": {"norad_id": 31614, "name": "FENGYUN 1C DEB", "group": "fengyun-1c-debris", "lat": 24.619576791813508, "lon": -123.61591098969778, "alt_km": 566.431367015296, "timestamp": "2025-12-02T06:27:53.296674+00:00", "meta": {"OBJECT_NAME": "FENGYUN 1C DEB", "OBJECT_ID": "1999-025BZU", "EPOCH": "2025-12-01T16:11:28.521024", "MEAN_MOTION": 14.94388898, "ECCENTRICITY": 0.0024267, "INCLINATION": 98.9737, "RA_OF_ASC_NODE": 239.8576, "ARG_OF_PERICENTER": 28.7428, "MEAN_ANOMALY": 38.5943, "EPHEMERIS_TYPE": 0, "CLASSIFICATION_TYPE": "U", "NORAD_CAT_ID": 31614, "ELEMENT_SET_NO": 999, "REV_AT_EPOCH": 96264, "BSTAR": 0.007431, "MEAN_MOTION_DOT": 0.0008129, "MEAN_MOTION_DDOT": 0}, "tle": {"line1": "1 31614U 99025BZU 25335.67463566  .00081290  00000+0  74310-2 0  9997", "line2": "2 31614  98.9737 239.8576 0024267  28.7428  38.5943 14.94388898962643"}}, "geometry": {"type": "Point", "coordinates": [-123.61591098969778, 24.619576791813508]}}, {"type": "Feature", "properties": {"norad_id": 31615, "name": "FENGYUN 1C DEB", "group": "fengyun-1c-debris", "lat": -18.168761714364788, "lon": 30.112593198661365, "alt_km": 662.003969067493, "timestamp": "2025-12-02T06:27:53.296686+00:00", "meta": {"OBJECT_NAME": "FENGYUN 1C DEB", "OBJECT_ID": "1999-025BZV", "EPOCH": "2025-12-01T02:05:59.722656", "MEAN_MOTION": 14.34983407, "ECCENTRICITY": 0.01658406, "INCLINATION": 99.1386, "RA_OF_ASC_NODE": 25.8337, "ARG_OF_PERICENTER": 351.1671, "MEAN_ANOMALY": 8.6603, "EPHEMERIS_TYPE": 0, "CLASSIFICATION_TYPE": "U", "NORAD_CAT_ID": 31615, "ELEMENT_SET_NO": 999, "REV_AT_EPOCH": 65111, "BSTAR": 0.0030347503, "MEAN_MOTION_DOT": 0.00010054, "MEAN_MOTION_DDOT": 0}, "tle": {"line1": "1 31615U 99025BZV 25335.08749679  .00010054  00000+0  30348-2 0  9998", "line2": "2 31615  99.1386  25.8337 0165840 351.1671   8.6603 14.34983407651110"}}, "geometry": {"type": "Point", "coordinates": [30.112593198661365, -18.168761714364788]}}, {"type": "Feature", "properties": {"norad_id": 31618, "name": "FENGYUN 1C DEB", "group": "fengyun-1c-debris", "lat": -38.274980239820415, "lon": -69.0685494965684, "alt_km": 910.3415450832217, "timestamp": "2025-12-02T06:27:53.296696+00:00", "meta": {"OBJECT_NAME": "FENGYUN 1C DEB", "OBJECT_ID": "1999-025BZY", "EPOCH": "2025-12-01T15:54:46.642176", "MEAN_MOTION": 14.20995964, "ECCENTRICITY": 0.01573796, "INCLINATION": 99.442, "RA_OF_ASC_NODE": 117.8286, "ARG_OF_PERICENTER": 357.4783, "MEAN_ANOMALY": 2.5582, "EPHEMERIS_TYPE": 0, "CLASSIFICATION_TYPE": "U", "NORAD_CAT_ID": 31618, "ELEMENT_SET_NO": 999, "REV_AT_EPOCH": 70107, "BSTAR": 0.00029773204, "MEAN_MOTION_DOT": 6.8e-06, "MEAN_MOTION_DDOT": 0}, "tle": {"line1": "1 31618U 99025BZY 25335.66303984  .00000680  00000+0  29773-3 0  9995", "line2": "2 31618  99.4420 117.8286 0157379 357.4783   2.5582 14.20995964701077"}}, "geometry": {"type": "Point", "coordinates": [-69.0685494965684, -38.274980239820415]}}]}